[{"version":0.6,"generator":"Overpass API 0.7.62.1 084b4234","osm3s.timestamp_osm_base":"2024-05-22T14:33:30Z","osm3s.copyright":"The data included in this document is from www.openstreetmap.org. The data is made available under ODbL.","elements.type":"way","elements.id":1272480472,"elements.timestamp":"2024-04-14T08:59:47Z","elements.version":1,"elements.changeset":149982370,"elements.user":"abne dias","elements.uid":21184792,"elements.nodes":[11816192504,11816192505,11816192506,11816192507,11816192504],"elements.tags":{"addr:city":"salvador","addr:postcode":"41245-035","addr:street":"rua cremilda de souza","addr:suburb":"pau da lima","building":"yes"}},{"version":0.6,"generator":"Overpass API 0.7.62.1 084b4234","osm3s.timestamp_osm_base":"2024-05-22T14:33:30Z","osm3s.copyright":"The data included in this document is from www.openstreetmap.org. The data is made available under ODbL.","elements.type":"way","elements.id":1272480473,"elements.timestamp":"2024-04-14T08:59:47Z","elements.version":1,"elements.changeset":149982370,"elements.user":"abne dias","elements.uid":21184792,"elements.nodes":[11816192508,11816192509,11816192510,11816192511,11816192508],"elements.tags":{"addr:city":"salvador","addr:postcode":"41245-035","addr:street":"rua cremilda de souza","addr:suburb":"pau da lima","building":"yes"}},{"version":0.6,"generator":"Overpass API 0.7.62.1 084b4234","osm3s.timestamp_osm_base":"2024-05-22T14:33:30Z","osm3s.copyright":"The data included in this document is from www.openstreetmap.org. The data is made available under ODbL.","elements.type":"way","elements.id":1272480475,"elements.timestamp":"2024-04-14T08:59:47Z","elements.version":1,"elements.changeset":149982370,"elements.user":"abne dias","elements.uid":21184792,"elements.nodes":[11816192517,11816192518,11816192519,11816192520,11816192517],"elements.tags":{"addr:city":"salvador","addr:postcode":"41235-676","addr:street":"Rua Santo Amaro da Purificação","addr:suburb":"pau da lima","building":"yes"}}]
